COMMENT,ORIGINATOR,NORAD_CAT_ID,OBJECT_NAME,OBJECT_TYPE,CLASSIFICATION_TYPE,INTLDES,EPOCH,EPOCH_MICROSECONDS,MEAN_MOTION,ECCENTRICITY,INCLINATION,RA_OF_ASC_NODE,ARG_OF_PERICENTER,MEAN_ANOMALY,EPHEMERIS_TYPE,ELEMENT_SET_NO,REV_AT_EPOCH,BSTAR,MEAN_MOTION_DOT,MEAN_MOTION_DDOT,FILE,TLE_LINE0,TLE_LINE1,TLE_LINE2,OBJECT_ID,OBJECT_NUMBER,SEMIMAJOR_AXIS,PERIOD,APOGEE,PERIGEE,DECAYED
GENERATED VIA SPACETRACK.ORG API,18 SPCS,58292,UMBRA-08,PAYLOAD,U,23174AN,2024-10-07 18:45:44,906400,15.1891494,0.0001895,97.4429,352.5834,53.1857,306.9551,0,999,5065,0.0045984,0.00097124,0,4517530,0 UMBRA-08,1 58292U 23174AN  24281.78176975  .00097124  00000-0  45984-2 0  9995,2 58292  97.4429 352.5834 0001895  53.1857 306.9551 15.18914940 50652,2023-174AN,58292,6887.256,94.805,510.426,507.816,1
GENERATED VIA SPACETRACK.ORG API,18 SPCS,58292,UMBRA-08,PAYLOAD,U,23174AN,2024-10-07 18:45:44,906400,15.1891494,0.0001895,97.4429,352.5834,53.1857,306.9551,0,999,5065,0.0045984,0.00097124,0,4517538,0 UMBRA-08,1 58292U 23174AN  24281.78176975  .00097124  00000-0  45984-2 0  9995,2 58292  97.4429 352.5834 0001895  53.1857 306.9551 15.18914940 50652,2023-174AN,58292,6887.256,94.805,510.426,507.816,1
GENERATED VIA SPACETRACK.ORG API,18 SPCS,58292,UMBRA-08,PAYLOAD,U,23174AN,2024-10-08 04:14:55,627008,15.19045094,0.0001849,97.4427,352.9723,49.5163,310.6232,0,999,5071,0.013075,0.00284568,0,4517971,0 UMBRA-08,1 58292U 23174AN  24282.17703272  .00284568  00000-0  13075-1 0  9990,2 58292  97.4427 352.9723 0001849  49.5163 310.6232 15.19045094 50710,2023-174AN,58292,6886.862,94.796,510.001,507.454,1
GENERATED VIA SPACETRACK.ORG API,18 SPCS,58292,UMBRA-08,PAYLOAD,U,23174AN,2024-10-08 10:34:21,227808,15.19130176,0.000179,97.4427,353.2322,46.3711,313.7672,0,999,5075,0.01477,0.00324017,0,4518454,0 UMBRA-08,1 58292U 23174AN  24282.44052347  .00324017  00000-0  14770-1 0  9997,2 58292  97.4427 353.2322 0001790  46.3711 313.7672 15.19130176 50750,2023-174AN,58292,6886.605,94.791,509.703,507.237,1
GENERATED VIA SPACETRACK.ORG API,18 SPCS,58292,UMBRA-08,PAYLOAD,U,23174AN,2024-10-08 10:34:21,227808,15.19130176,0.000179,97.4427,353.2322,46.3711,313.7672,0,999,5075,0.01477,0.00324017,0,4518461,0 UMBRA-08,1 58292U 23174AN  24282.44052347  .00324017  00000-0  14770-1 0  9997,2 58292  97.4427 353.2322 0001790  46.3711 313.7672 15.19130176 50750,2023-174AN,58292,6886.605,94.791,509.703,507.237,1
GENERATED VIA SPACETRACK.ORG API,18 SPCS,58292,UMBRA-08,PAYLOAD,U,23174AN,2024-10-08 18:28:37,422048,15.19147793,0.000181,97.4421,353.5562,46.2944,313.8441,0,999,5080,0.0073457,0.00157535,0,4518913,0 UMBRA-08,1 58292U 23174AN  24282.76987757  .00157535  00000-0  73457-2 0  9991,2 58292  97.4421 353.5562 0001810  46.2944 313.8441 15.19147793 50807,2023-174AN,58292,6886.552,94.790,509.663,507.170,1
GENERATED VIA SPACETRACK.ORG API,18 SPCS,58292,UMBRA-08,PAYLOAD,U,23174AN,2024-10-08 18:28:37,422048,15.19147793,0.000181,97.4421,353.5562,46.2944,313.8441,0,999,5080,0.0073457,0.00157535,0,4518921,0 UMBRA-08,1 58292U 23174AN  24282.76987757  .00157535  00000-0  73457-2 0  9991,2 58292  97.4421 353.5562 0001810  46.2944 313.8441 15.19147793 50807,2023-174AN,58292,6886.552,94.790,509.663,507.170,1
GENERATED VIA SPACETRACK.ORG API,18 SPCS,58292,UMBRA-08,PAYLOAD,U,23174AN,2024-10-09 03:57:43,766496,15.191859,0.0001722,97.4422,353.9452,44.4328,315.7045,0,999,5086,0.0049507,0.0010551,0,4519316,0 UMBRA-08,1 58292U 23174AN  24283.16508989  .00105510  00000-0  49507-2 0  9997,2 58292  97.4422 353.9452 0001722  44.4328 315.7045 15.19185900 50867,2023-174AN,58292,6886.437,94.788,509.488,507.116,1
GENERATED VIA SPACETRACK.ORG API,18 SPCS,58292,UMBRA-08,PAYLOAD,U,23174AN,2024-10-09 03:57:43,766496,15.191859,0.0001722,97.4422,353.9452,44.4328,315.7045,0,999,5086,0.0049507,0.0010551,0,4519698,0 UMBRA-08,1 58292U 23174AN  24283.16508989  .00105510  00000-0  49507-2 0  9997,2 58292  97.4422 353.9452 0001722  44.4328 315.7045 15.19185900 50867,2023-174AN,58292,6886.437,94.788,509.488,507.116,1
GENERATED VIA SPACETRACK.ORG API,18 SPCS,58292,UMBRA-08,PAYLOAD,U,23174AN,2024-10-09 18:11:20,675616,15.19254874,0.0001695,97.4424,354.5293,37.8728,322.2626,0,999,5095,0.0029297,0.00062165,0,4519965,0 UMBRA-08,1 58292U 23174AN  24283.75787819  .00062165  00000-0  29297-2 0  9995,2 58292  97.4424 354.5293 0001695  37.8728 322.2626 15.19254874 50953,2023-174AN,58292,6886.228,94.783,509.260,506.926,1
GENERATED VIA SPACETRACK.ORG API,18 SPCS,58292,UMBRA-08,PAYLOAD,U,23174AN,2024-10-09 18:11:20,675616,15.19254874,0.0001695,97.4424,354.5293,37.8728,322.2626,0,999,5095,0.0029297,0.00062165,0,4519993,0 UMBRA-08,1 58292U 23174AN  24283.75787819  .00062165  00000-0  29297-2 0  9995,2 58292  97.4424 354.5293 0001695  37.8728 322.2626 15.19254874 50953,2023-174AN,58292,6886.228,94.783,509.260,506.926,1
GENERATED VIA SPACETRACK.ORG API,18 SPCS,58292,UMBRA-08,PAYLOAD,U,23174AN,2024-10-10 11:34:35,706144,15.19352923,0.0001718,97.4425,355.243,33.7303,326.4041,0,999,5106,0.0046906,0.00100375,0,4520681,0 UMBRA-08,1 58292U 23174AN  24284.48235771  .00100375  00000-0  46906-2 0  9993,2 58292  97.4425 355.2430 0001718  33.7303 326.4041 15.19352923 51069,2023-174AN,58292,6885.932,94.777,508.980,506.614,1
GENERATED VIA SPACETRACK.ORG API,18 SPCS,58292,UMBRA-08,PAYLOAD,U,23174AN,2024-10-10 17:53:56,687136,15.19375315,0.0001773,97.4426,355.5027,31.8491,328.285,0,999,5110,0.0036714,0.00078365,0,4521009,0 UMBRA-08,1 58292U 23174AN  24284.74579499  .00078365  00000-0  36714-2 0  9999,2 58292  97.4426 355.5027 0001773  31.8491 328.2850 15.19375315 51106,2023-174AN,58292,6885.864,94.776,508.950,506.509,1
GENERATED VIA SPACETRACK.ORG API,18 SPCS,58292,UMBRA-08,PAYLOAD,U,23174AN,2024-10-11 04:57:46,12320,15.19593215,0.0001779,97.4428,355.9565,30.3245,329.8092,0,999,5117,0.017737,0.00398422,0,4521469,0 UMBRA-08,1 58292U 23174AN  24285.20678255  .00398422  00000-0  17737-1 0  9993,2 58292  97.4428 355.9565 0001779  30.3245 329.8092 15.19593215 51179,2023-174AN,58292,6885.206,94.762,508.296,505.846,1
GENERATED VIA SPACETRACK.ORG API,18 SPCS,58292,UMBRA-08,PAYLOAD,U,23174AN,2024-10-11 11:17:03,761088,15.19686929,0.0001808,97.4429,356.2164,29.1575,330.976,0,999,5121,0.018358,0.00414405,0,4521938,0 UMBRA-08,1 58292U 23174AN  24285.47018242  .00414405  00000-0  18358-1 0  9996,2 58292  97.4429 356.2164 0001808  29.1575 330.9760 15.19686929 51219,2023-174AN,58292,6884.923,94.756,508.033,505.543,1
GENERATED VIA SPACETRACK.ORG API,18 SPCS,58292,UMBRA-08,PAYLOAD,U,23174AN,2024-10-11 11:17:03,761088,15.19686929,0.0001808,97.4429,356.2164,29.1575,330.976,0,999,5121,0.018358,0.00414405,0,4521985,0 UMBRA-08,1 58292U 23174AN  24285.47018242  .00414405  00000-0  18358-1 0  9996,2 58292  97.4429 356.2164 0001808  29.1575 330.9760 15.19686929 51219,2023-174AN,58292,6884.923,94.756,508.033,505.543,1
GENERATED VIA SPACETRACK.ORG API,18 SPCS,58292,UMBRA-08,PAYLOAD,U,23174AN,2024-10-11 20:45:59,49792,15.19666238,0.0001684,97.443,356.6058,29.2354,330.8975,0,999,5127,0.0040987,0.00088352,0,4522402,0 UMBRA-08,1 58292U 23174AN  24285.86526678  .00088352  00000-0  40987-2 0  9998,2 58292  97.4430 356.6058 0001684  29.2354 330.8975 15.19666238 51279,2023-174AN,58292,6884.986,94.758,508.010,505.691,1
GENERATED VIA SPACETRACK.ORG API,18 SPCS,58292,UMBRA-08,PAYLOAD,U,23174AN,2024-10-12 03:05:15,278784,15.1969811,0.0001637,97.4431,356.8654,29.9062,330.2266,0,999,5131,0.0034109,0.00073432,0,4522761,0 UMBRA-08,1 58292U 23174AN  24286.12864906  .00073432  00000-0  34109-2 0  9999,2 58292  97.4431 356.8654 0001637  29.9062 330.2266 15.19698110 51311,2023-174AN,58292,6884.889,94.756,507.881,505.627,1
GENERATED VIA SPACETRACK.ORG API,18 SPCS,58292,UMBRA-08,PAYLOAD,U,23174AN,2024-10-12 04:40:04,269504,15.19706351,0.0001669,97.4431,356.9304,29.1142,331.0186,0,999,5132,0.0033936,0.00073073,0,4523210,0 UMBRA-08,1 58292U 23174AN  24286.19449386  .00073073  00000-0  33936-2 0  9995,2 58292  97.4431 356.9304 0001669  29.1142 331.0186 15.19706351 51328,2023-174AN,58292,6884.864,94.755,507.878,505.580,1
GENERATED VIA SPACETRACK.ORG API,18 SPCS,58292,UMBRA-08,PAYLOAD,U,23174AN,2024-10-12 18:53:24,116352,15.19755599,0.0001695,97.4432,357.5148,25.8525,334.2794,0,999,5141,0.0028317,0.00060949,0,4523216,0 UMBRA-08,1 58292U 23174AN  24286.78708468  .00060949  00000-0  28317-2 0  9994,2 58292  97.4432 357.5148 0001695  25.8525 334.2794 15.19755599 51417,2023-174AN,58292,6884.716,94.752,507.748,505.414,1
GENERATED VIA SPACETRACK.ORG API,18 SPCS,58292,UMBRA-08,PAYLOAD,U,23174AN,2024-10-13 04:22:16,188384,15.19797331,0.0001593,97.4433,357.9042,23.0637,337.0669,0,999,5147,0.002761,0.00059485,0,4523218,0 UMBRA-08,1 58292U 23174AN  24287.18213181  .00059485  00000-0  27610-2 0  9990,2 58292  97.4433 357.9042 0001593  23.0637 337.0669 15.19797331 51474,2023-174AN,58292,6884.590,94.749,507.551,505.358,1
GENERATED VIA SPACETRACK.ORG API,18 SPCS,58292,UMBRA-08,PAYLOAD,U,23174AN,2024-10-13 17:00:44,379936,15.19839843,0.0001632,97.4431,358.4242,16.4778,343.651,0,999,5155,0.0022083,0.00047545,0,4523892,0 UMBRA-08,1 58292U 23174AN  24287.70884699  .00047545  00000-0  22083-2 0  9999,2 58292  97.4431 358.4242 0001632  16.4778 343.6510 15.19839843 51558,2023-174AN,58292,6884.461,94.747,507.450,505.203,1
GENERATED VIA SPACETRACK.ORG API,18 SPCS,58292,UMBRA-08,PAYLOAD,U,23174AN,2024-10-13 17:00:44,379936,15.19839843,0.0001632,97.4431,358.4242,16.4778,343.651,0,999,5155,0.0022083,0.00047545,0,4523921,0 UMBRA-08,1 58292U 23174AN  24287.70884699  .00047545  00000-0  22083-2 0  9999,2 58292  97.4431 358.4242 0001632  16.4778 343.6510 15.19839843 51558,2023-174AN,58292,6884.461,94.747,507.450,505.203,1
GENERATED VIA SPACETRACK.ORG API,18 SPCS,58292,UMBRA-08,PAYLOAD,U,23174AN,2024-10-14 04:04:22,848960,15.19884143,0.0001597,97.4432,358.8787,15.1024,345.0258,0,999,5162,0.0022065,0.00047567,0,4524553,0 UMBRA-08,1 58292U 23174AN  24288.16970890  .00047567  00000-0  22065-2 0  9993,2 58292  97.4432 358.8787 0001597  15.1024 345.0258 15.19884143 51623,2023-174AN,58292,6884.327,94.744,507.292,505.093,1
